KAITUO 1B               
1 40912U 15049P   17346.48350839  .00001528  00000-0  77735-4 0  9995
2 40912  97.4513 351.5222 0014169 306.9589 206.7651 15.18278448123335
TIANWANG 1C (TW-1C)     
1 40926U 15051B   17345.81631288  .00006880  00000-0  14227-3 0  9991
2 40926  97.2087  24.1613 0008946 237.1798 211.8525 15.46086055124334
TIANWANG 1B (TW-1B)     
1 40927U 15051C   17345.82169538  .00006515  00000-0  14026-3 0  9999
2 40927  97.2171  24.1001 0008652 252.4996 194.8447 15.44923785124267
TIANWANG 1A (TW-1A)     
1 40928U 15051D   17346.36079027  .00002361  00000-0  66129-4 0  9990
2 40928  97.2090  18.9407 0010407 278.1606 139.0716 15.37574442124065
LAPAN-A2 (IO-86)        
1 40931U 15052B   17345.55329771  .00000685  00000-0  63595-5 0  9991
2 40931   6.0042  48.0637 0012612 236.0313 123.8836 14.76557758119220
LQSAT                   
1 40958U 15057A   17346.42929031  .00000061  00000-0  17322-4 0  9991
2 40958  97.9622  58.4799 0017407 211.4391 148.5774 14.73006424117359
CHUBUSAT-2              
1 41338U 16012B   17346.51516464  .00000380  00000-0  23114-4 0  9998
2 41338  31.0044  59.5720 0013916  24.5015 335.6280 14.99886487 99782
CHUBUSAT-3              
1 41339U 16012C   17346.48610185  .00000370  00000-0  22163-4 0  9992
2 41339  31.0094  58.6243 0013631  31.4441 328.7002 15.00080662 99769
OUFTI-1                 
1 41458U 16025C   17346.39840741  .00001399  00000-0  77056-4 0  9994
2 41458  98.1643  34.0799 0173052  54.1055 307.6096 15.04040822 89357
E-ST@R-II               
1 41459U 16025D   17346.37487758  .00000759  00000-0  44059-4 0  9994
2 41459  98.1633  33.9619 0174010  54.5872 307.1461 15.03813845 89344
AAUSAT 4                
1 41460U 16025E   17346.38371618  .00001734  00000-0  94316-4 0  9999
2 41460  98.1573  34.2154 0165590  52.0275 309.5768 15.05017255 89383
NUSAT 1 (LO-87)         
1 41557U 16033B   17346.27584573  .00001637  00000-0  62864-4 0  9994
2 41557  97.4515  65.7498 0015602  98.0424 262.2586 15.27810871 85616
BEESAT-4                
1 41619U 16040W   17345.74120101  .00001765  00000-0  81302-4 0  9995
2 41619  97.4415  46.2797 0012345 160.2114 199.9603 15.21548843 69584
PRATHAM                 
1 41783U 16059A   17345.72718072  .00000062  00000-0  21515-4 0  9994
2 41783  98.1455  45.0514 0032801 325.8435  34.0656 14.62886355 64552
ALSAT 1N                
1 41789U 16059G   17346.38838112  .00000106  00000-0  29357-4 0  9992
2 41789  98.1461  46.5535 0027567 317.6057  42.3013 14.64109506 64687
NAYIF-1 (EO-88)         
1 42017U 17008BX  17345.91940230  .00001642  00000-0  71128-4 0  9994
2 42017  97.4743  46.9012 0005541 330.5377  29.5547 15.23823980 45546
LILACSAT-1              
1 42725U 98067ME  17345.91421545  .00016263  00000-0  19118-3 0  9992
2 42725  51.6376 227.3351 0004545 233.5148 126.5428 15.61589802 31206
MAX VALIER SAT          
1 42778U 17036P   17345.76223038  .00001190  00000-0  56855-4 0  9990
2 42778  97.4306  43.3525 0012944  13.5684 346.5897 15.20897421 26018
FOX-1B (AO-91)          
1 43017U 17073E   17345.81075219  .00000472  00000-0  42467-4 0  9996
2 43017  97.6933 279.9415 0261125 161.2307 199.8757 14.77794691  3439
